{
  "type": "FeatureCollection",
  "features": [
    {
      "type": "Feature",
      "properties": {
        "norad_id": 31307,
        "name": "GALAXY 17 (G-17)",
        "group": "intelsat",
        "lat": 2.0055433943961773,
        "lon": -151.39172728948958,
        "alt_km": 35768.29616413366,
        "timestamp": "2025-12-17T13:48:37.211877+00:00",
        "meta_object_name": "GALAXY 17 (G-17)",
        "meta_object_id": "2007-016B",
        "meta_epoch": "2025-12-17T06:03:38.655936",
        "meta_mean_motion": 1.00272012,
        "meta_eccentricity": 0.00055326,
        "meta_inclination": 2.5111,
        "meta_ra_of_asc_node": 82.2351,
        "meta_arg_of_pericenter": 167.9961,
        "meta_mean_anomaly": 201.838,
        "meta_ephemeris_type": 0,
        "meta_classification_type": "U",
        "meta_norad_cat_id": 31307,
        "meta_element_set_no": 999,
        "meta_rev_at_epoch": 6798,
        "meta_bstar": 0,
        "meta_mean_motion_dot": -1.84e-06,
        "meta_mean_motion_ddot": 0,
        "tle_line1": "1 31307U 07016B   25351.25253074 -.00000184  00000+0  00000+0 0  9994",
        "tle_line2": "2 31307   2.5111  82.2351 0005532 167.9961 201.8380  1.00272012 67988"
      },
      "geometry": {
        "type": "Point",
        "coordinates": [
          -151.39172728948958,
          2.0055433943961773
        ]
      }
    },
    {
      "type": "Feature",
      "properties": {
        "norad_id": 31862,
        "name": "DIRECTV 10",
        "group": "intelsat",
        "lat": 0.005627578530233524,
        "lon": -169.2115773669357,
        "alt_km": 35785.28243215579,
        "timestamp": "2025-12-17T13:48:37.211888+00:00",
        "meta_object_name": "DIRECTV 10",
        "meta_object_id": "2007-032A",
        "meta_epoch": "2025-12-17T07:02:53.517408",
        "meta_mean_motion": 1.00269426,
        "meta_eccentricity": 3.669e-05,
        "meta_inclination": 0.0146,
        "meta_ra_of_asc_node": 159.5204,
        "meta_arg_of_pericenter": 48.9964,
        "meta_mean_anomaly": 240.5776,
        "meta_ephemeris_type": 0,
        "meta_classification_type": "U",
        "meta_norad_cat_id": 31862,
        "meta_element_set_no": 999,
        "meta_rev_at_epoch": 4376,
        "meta_bstar": 0,
        "meta_mean_motion_dot": -7.8e-07,
        "meta_mean_motion_ddot": 0,
        "tle_line1": "1 31862U 07032A   25351.29367497 -.00000078  00000+0  00000+0 0  9999",
        "tle_line2": "2 31862   0.0146 159.5204 0000366  48.9964 240.5776  1.00269426 43765"
      },
      "geometry": {
        "type": "Point",
        "coordinates": [
          -169.2115773669357,
          0.005627578530233524
        ]
      }
    },
    {
      "type": "Feature",
      "properties": {
        "norad_id": 32253,
        "name": "INTELSAT 11 (IS-11)",
        "group": "intelsat",
        "lat": 2.6061040550549284,
        "lon": 137.86817371202622,
        "alt_km": 36144.534339293146,
        "timestamp": "2025-12-17T13:48:37.211899+00:00",
        "meta_object_name": "INTELSAT 11 (IS-11)",
        "meta_object_id": "2007-044B",
        "meta_epoch": "2025-12-17T07:08:04.843392",
        "meta_mean_motion": 0.99051025,
        "meta_eccentricity": 0.00086065,
        "meta_inclination": 3.0916,
        "meta_ra_of_asc_node": 80.9265,
        "meta_arg_of_pericenter": 167.7417,
        "meta_mean_anomaly": 150.1516,
        "meta_ephemeris_type": 0,
        "meta_classification_type": "U",
        "meta_norad_cat_id": 32253,
        "meta_element_set_no": 999,
        "meta_rev_at_epoch": 6664,
        "meta_bstar": 0,
        "meta_mean_motion_dot": 2.1e-07,
        "meta_mean_motion_ddot": 0,
        "tle_line1": "1 32253U 07044B   25351.29727828  .00000021  00000+0  00000+0 0  9992",
        "tle_line2": "2 32253   3.0916  80.9265 0008606 167.7417 150.1516  0.99051025 66641"
      },
      "geometry": {
        "type": "Point",
        "coordinates": [
          137.86817371202622,
          2.6061040550549284
        ]
      }
    },
    {
      "type": "Feature",
      "properties": {
        "norad_id": 32388,
        "name": "HORIZONS-2",
        "group": "intelsat",
        "lat": 1.4377295679426705,
        "lon": -140.21329725429482,
        "alt_km": 35774.24999843446,
        "timestamp": "2025-12-17T13:48:37.211910+00:00",
        "meta_object_name": "HORIZONS-2",
        "meta_object_id": "2007-063B",
        "meta_epoch": "2025-12-17T04:24:51.296256",
        "meta_mean_motion": 1.00272984,
        "meta_eccentricity": 0.00045758,
        "meta_inclination": 2.1326,
        "meta_ra_of_asc_node": 82.9158,
        "meta_arg_of_pericenter": 191.1459,
        "meta_mean_anomaly": 164.4271,
        "meta_ephemeris_type": 0,
        "meta_classification_type": "U",
        "meta_norad_cat_id": 32388,
        "meta_element_set_no": 999,
        "meta_rev_at_epoch": 6598,
        "meta_bstar": 0,
        "meta_mean_motion_dot": -2.31e-06,
        "meta_mean_motion_ddot": 0,
        "tle_line1": "1 32388U 07063B   25351.18392704 -.00000231  00000+0  00000+0 0  9995",
        "tle_line2": "2 32388   2.1326  82.9158 0004575 191.1459 164.4271  1.00272984 65980"
      },
      "geometry": {
        "type": "Point",
        "coordinates": [
          -140.21329725429482,
          1.4377295679426705
        ]
      }
    },
    {
      "type": "Feature",
      "properties": {
        "norad_id": 32729,
        "name": "DIRECTV 11",
        "group": "intelsat",
        "lat": -0.004582987475671122,
        "lon": -165.58905105737813,
        "alt_km": 35784.36302440652,
        "timestamp": "2025-12-17T13:48:37.211922+00:00",
        "meta_object_name": "DIRECTV 11",
        "meta_object_id": "2008-013A",
        "meta_epoch": "2025-12-16T21:26:45.259296",
        "meta_mean_motion": 1.00271167,
        "meta_eccentricity": 5.224e-05,
        "meta_inclination": 0.0169,
        "meta_ra_of_asc_node": 231.5018,
        "meta_arg_of_pericenter": 293.6568,
        "meta_mean_anomaly": 143.1244,
        "meta_ephemeris_type": 0,
        "meta_classification_type": "U",
        "meta_norad_cat_id": 32729,
        "meta_element_set_no": 999,
        "meta_rev_at_epoch": 4376,
        "meta_bstar": 0,
        "meta_mean_motion_dot": -1.01e-06,
        "meta_mean_motion_ddot": 0,
        "tle_line1": "1 32729U 08013A   25350.89357939 -.00000101  00000+0  00000+0 0  9994",
        "tle_line2": "2 32729   0.0169 231.5018 0000522 293.6568 143.1244  1.00271167 43763"
      },
      "geometry": {
        "type": "Point",
        "coordinates": [
          -165.58905105737813,
          -0.004582987475671122
        ]
      }
    },
    {
      "type": "Feature",
      "properties": {
        "norad_id": 32951,
        "name": "GALAXY 18 (G-18)",
        "group": "intelsat",
        "lat": -0.0001464759472158065,
        "lon": 170.5619168737493,
        "alt_km": 35788.405372794914,
        "timestamp": "2025-12-17T13:48:37.211933+00:00",
        "meta_object_name": "GALAXY 18 (G-18)",
        "meta_object_id": "2008-024A",
        "meta_epoch": "2025-12-17T06:30:24.768000",
        "meta_mean_motion": 1.00272901,
        "meta_eccentricity": 0.00028344,
        "meta_inclination": 0.0052,
        "meta_ra_of_asc_node": 80.5939,
        "meta_arg_of_pericenter": 192.8645,
        "meta_mean_anomaly": 147.2943,
        "meta_ephemeris_type": 0,
        "meta_classification_type": "U",
        "meta_norad_cat_id": 32951,
        "meta_element_set_no": 999,
        "meta_rev_at_epoch": 4402,
        "meta_bstar": 0,
        "meta_mean_motion_dot": 5e-07,
        "meta_mean_motion_ddot": 0,
        "tle_line1": "1 32951U 08024A   25351.27112000  .00000050  00000+0  00000+0 0  9996",
        "tle_line2": "2 32951   0.0052  80.5939 0002834 192.8645 147.2943  1.00272901 44027"
      },
      "geometry": {
        "type": "Point",
        "coordinates": [
          170.5619168737493,
          -0.0001464759472158065
        ]
      }
    },
    {
      "type": "Feature",
      "properties": {
        "norad_id": 33153,
        "name": "INTELSAT 25 (IS-25)",
        "group": "intelsat",
        "lat": -0.006499253268932558,
        "lon": -97.9055521710974,
        "alt_km": 35765.97646693333,
        "timestamp": "2025-12-17T13:48:37.211945+00:00",
        "meta_object_name": "INTELSAT 25 (IS-25)",
        "meta_object_id": "2008-034A",
        "meta_epoch": "2025-12-17T04:36:57.636864",
        "meta_mean_motion": 1.00271025,
        "meta_eccentricity": 0.00048196,
        "meta_inclination": 2.2387,
        "meta_ra_of_asc_node": 82.6028,
        "meta_arg_of_pericenter": 184.2545,
        "meta_mean_anomaly": 216.958,
        "meta_ephemeris_type": 0,
        "meta_classification_type": "U",
        "meta_norad_cat_id": 33153,
        "meta_element_set_no": 999,
        "meta_rev_at_epoch": 6387,
        "meta_bstar": 0,
        "meta_mean_motion_dot": -2.01e-06,
        "meta_mean_motion_ddot": 0,
        "tle_line1": "1 33153U 08034A   25351.19233376 -.00000201  00000+0  00000+0 0  9992",
        "tle_line2": "2 33153   2.2387  82.6028 0004819 184.2545 216.9580  1.00271025 63879"
      },
      "geometry": {
        "type": "Point",
        "coordinates": [
          -97.9055521710974,
          -0.006499253268932558
        ]
      }
    }
  ]
}